SHIJIAN-6 05A (SJ-6 05A)
1 49961U 21122A   26068.88345882  .00003299  00000+0  27617-3 0  9993
2 49961  97.4012  42.3306 0003221  76.6317 283.5266 14.99085264233873
STARLINK-33993          
1 63949U 25098Z   26068.80554868 -.00087772  00000+0 -74293-2 0  9990
2 63949  70.0003 273.9954 0002378 281.9857  78.1036 14.98390673 46579
